16P/Brooks,e,3.0112,138.8654,245.2756,3.659560,0.1407864,0.48638548,111.7155,06/21.0/2023,2000,g  7.5,10.0
# From MPEC 2023-J29
17P/Holmes,e,19.0251,326.6289,24.5820,3.638553,0.1420074,0.42734218,120.8616,06/21.0/2023,2000,g 10.0,6.0
# From MPEC 2023-KD6
19P/Borrelly,e,29.3080,74.2277,351.9492,3.606802,0.1438867,0.63783272,72.5339,06/21.0/2023,2000,g  4.5,10.0
# From MPEC 2021-F20
21P/Giacobini-Zinner,e,32.0584,195.3450,172.8990,3.494468,0.1508802,0.71124348,262.9137,06/21.0/2023,2000,g 11.4,4.0
# From MPEC 2023-BF4
22P/Kopff,e,4.7429,120.7207,162.9821,3.438486,0.1545799,0.54968808,71.0736,06/21.0/2023,2000,g  3.0,10.4
# From MPC 14747
23P/Brorsen-Metcalf,e,19.2705,311.8940,129.2888,16.94217,0.0141335,0.97223701,0.0000,08/13.5060/1989,2000,g 10.0,6.0
# From MPC110085
24P/Schaumasse,e,11.5028,78.3110,58.4606,4.055425,0.1206840,0.70775815,247.4344,06/21.0/2023,2000,g  6.5,14.0
# From MPEC 2022-Y15
26P/Grigg-Skjellerup,e,22.4331,211.5414,2.1512,3.015474,0.1882221,0.64056164,324.7365,06/21.0/2023,2000,g 12.0,16.0
# From MPC 78188
27P/Crommelin,e,29.3828,250.6798,195.8488,9.180325,0.0354337,0.91915605,154.0744,06/21.0/2023,2000,g 12.0,8.0
# From MPEC 2023-FK0
28P/Neujmin,e,14.3096,346.3483,347.4709,6.982036,0.0534233,0.77351335,44.4101,06/21.0/2023,2000,g  8.5,6.0
# From MPEC 2023-M14
29P/Schwassmann-Wachmann,e,9.3624,312.4008,51.3557,6.049357,0.0662430,0.04456711,100.5203,06/21.0/2023,2000,g  4.0,4.0
# From MPEC 2023-CD7
30P/Reinmuth,e,8.0533,117.3985,9.4440,3.735797,0.1364989,0.51550075,302.2496,06/21.0/2023,2000,g  9.5,6.0
# From MPEC 2021-F20
31P/Schwassmann-Wachmann,e,4.5487,114.1049,17.8649,4.234809,0.1130976,0.19247332,163.8428,06/21.0/2023,2000,g 13.1,4.0
# From MPEC 2023-J29
32P/ComasSola,e,9.9171,54.5356,54.7007,4.559891,0.1012214,0.55628709,329.1905,06/21.0/2023,2000,g  6.5,8.0
# From MPEC 2023-J29
33P/Daniel,e,22.2938,66.2945,20.4444,4.089048,0.1191985,0.45189395,299.2653,06/21.0/2023,2000,g 10.0,12.0
# From  15, 452
35P/Herschel-Rigollet,e,65.165,356.664,29.008,28.5436,0.006463,0.9744474,0.000,02/22.4491/2092,2000,g  9.0,4.0
# From MPEC 2022-ED3
36P/Whipple,e,9.9525,181.8415,201.0793,4.137860,0.1170956,0.26901219,130.4334,06/21.0/2023,2000,g  8.5,6.0
# From MPEC 2021-F20
37P/Forbes,e,8.9499,314.5648,330.0902,3.462171,0.1529964,0.53296618,286.8277,06/21.0/2023,2000,g 13.8,4.0
# From MPEC 2018-S50
38P/Stephan-Oterma,e,18.3976,77.8893,359.5140,11.24125,0.0261506,0.85956006,43.9799,06/21.0/2023,2000,g  3.5,12.0
# From MPEC 2022-A21
39P/Oterma,e,1.5468,296.0442,102.9758,7.229969,0.0506990,0.21061738,358.9714,06/21.0/2023,2000,g  7.0,6.0
# From MPC100283
40P/Vaisala,e,11.4574,133.4809,47.6440,4.956819,0.0893099,0.63177591,281.7026,06/21.0/2023,2000,g  5.5,12.0
# From MPEC 2023-J29
41P/Tuttle-Giacobini-Kresak,e,9.2202,140.9878,62.2182,3.088231,0.1816098,0.65987423,50.9255,06/21.0/2023,2000,g 10.0,16.0
# From MPC 94283
42P/Neujmin,e,3.9905,150.1756,147.2147,4.874549,0.0915804,0.58443247,274.0264,06/21.0/2023,2000,g 13.0,6.0
# From MPEC 2023-J29
43P/Wolf-Harrington,e,9.3470,244.0278,224.2413,4.328313,0.1094526,0.43444292,274.1111,06/21.0/2023,2000,g  8.0,6.0
# From MPEC 2023-J29
44P/Reinmuth,e,5.8972,286.4271,58.0260,3.688143,0.1391530,0.42732050,59.0057,06/21.0/2023,2000,g  8.3,6.0
# From MPEC 2022-O01
45P/Honda-Mrkos-Pajdusakova,e,4.3233,87.6847,327.9303,3.055980,0.1844923,0.81769759,77.4874,06/21.0/2023,2000,g 13.5,8.0
# From MPEC 2023-J29
46P/Wirtanen,e,11.7494,82.1631,356.3268,3.091085,0.1813584,0.65872197,299.5841,06/21.0/2023,2000,g 14.0,6.0
# From MPEC 2023-J29
47P/Ashbrook-Jackson,e,13.0394,356.9157,357.7817,4.121492,0.1177938,0.31868617,258.7623,06/21.0/2023,2000,g  1.0,11.2
# From MPEC 2023-FK0
48P/Johnson,e,12.2002,110.0842,216.7518,3.501070,0.1504537,0.42705368,266.6456,06/21.0/2023,2000,g 10.0,6.0
# From MPEC 2023-J95
49P/Arend-Rigaux,e,19.0545,118.7914,332.9230,3.569302,0.1461602,0.59868500,263.5679,06/21.0/2023,2000,g 11.3,4.4
# From MPEC 2015-S97
50P/Arend,e,19.1013,355.1724,49.3577,4.087465,0.1192677,0.52968123,321.0185,06/21.0/2023,2000,g  9.5,6.0
# From MPEC 2023-J29
51P/Harrington,e,5.4266,83.6615,269.2419,3.706159,0.1381395,0.54335280,36.2967,06/21.0/2023,2000,g 10.0,8.0
# From NK 3014
51P-A/Harrington,e,5.4266,83.6615,269.2131,3.707830,0.1380462,0.54359179,35.9186,06/21.0/2023,2000,g 10.0,8.0
# From MPEC 2023-J29
51P-D/Harrington,e,5.4271,83.6497,269.2602,3.706519,0.1381194,0.54348251,36.2330,06/21.0/2023,2000,g 16.0,8.0
# From MPEC 2023-J29
52P/Harrington-Abell,e,10.2311,336.8204,139.5573,3.863491,0.1297879,0.54037739,80.9574,06/21.0/2023,2000,g 13.5,6.0
# From MPEC 2023-J29
53P/VanBiesbroeck,e,6.6073,148.8279,134.4804,5.433321,0.0778226,0.55027360,203.1394,06/21.0/2023,2000,g  7.7,4.8
# From MPC 89011
54P/de Vico-Swift-NEAT,e,6.0641,358.8084,1.9141,3.787786,0.1336983,0.42645015,301.0682,06/21.0/2023,2000,g  9.0,4.0
# From MPC 31070
55P/Tempel-Tuttle,e,162.5109,235.4218,172.4748,10.35501,0.0295787,0.90524054,274.4543,06/21.0/2023,2000,g  9.0,4.0
# From MPEC 2023-J29
56P/Slaughter-Burnham,e,8.1585,345.9711,44.0700,5.065674,0.0864467,0.50859122,218.1139,06/21.0/2023,2000,g  8.5,6.0
# From MPEC 2023-HD1
57P/duToit-Neujmin-Delporte,e,2.8524,188.7778,115.1264,3.443201,0.1542625,0.50082364,94.3909,06/21.0/2023,2000,g 13.7,4.0
# From MPEC 2023-J29
58P/Jackson-Neujmin,e,13.1067,159.0705,200.5344,4.088430,0.1192255,0.66263227,133.4476,06/21.0/2023,2000,g 15.5,6.0
# From MPEC 2023-A50
59P/Kearns-Kwee,e,9.3457,312.7786,127.5358,4.482634,0.1038494,0.47634462,180.3843,06/21.0/2023,2000,g  7.0,6.0
# From MPEC 2021-F20
60P/Tsuchinshan,e,3.5799,267.4313,216.9831,3.526424,0.1488340,0.53358248,246.7448,06/21.0/2023,2000,g 11.5,6.0
# From MPEC 2023-J29
61P/Shajn-Schaldach,e,5.9995,162.9609,221.6367,3.688580,0.1391282,0.42368628,33.4291,06/21.0/2023,2000,g  6.0,10.0
# From MPEC 2023-J29
62P/Tsuchinshan,e,4.7383,68.6997,47.2685,3.370556,0.1592765,0.62480445,330.1752,06/21.0/2023,2000,g  8.0,10.0
# From MPC 84320
63P/Wild,e,19.7061,357.9965,168.9298,5.618338,0.0740103,0.65009280,277.6275,06/21.0/2023,2000,g 10.5,6.0
# From MPEC 2023-A50
64P/Swift-Gehrels,e,8.9493,299.8834,97.1919,4.452498,0.1049056,0.68872315,177.0885,06/21.0/2023,2000,g  9.5,12.0
# From MPEC 2023-KD6
65P/Gunn,e,9.1758,61.9817,213.8440,3.889668,0.1284799,0.24830754,266.5852,06/21.0/2023,2000,g  5.0,6.0
# From MPEC 2021-F20
66P/duToit,e,18.6388,21.7788,257.4871,6.070621,0.0658953,0.78563648,122.6090,06/21.0/2023,2000,g 15.0,4.0
# From MPEC 2023-J29
67P/Churyumov-Gerasimenko,e,3.8718,36.3291,22.1554,3.457569,0.1533020,0.64992939,91.3383,06/21.0/2023,2000,g 11.0,4.0
# From MPEC 2023-HD1
68P/Klemola,e,11.1106,175.0510,153.2578,4.959991,0.0892242,0.63698027,117.7949,06/21.0/2023,2000,g 12.6,4.0
# From MPEC 2023-A50
69P/Taylor,e,22.0500,104.8044,343.3993,3.883841,0.1287692,0.41405938,200.2459,06/21.0/2023,2000,g  9.5,12.0
# From MPEC 2023-G31
70P/Kojima,e,6.5985,119.2510,1.7884,3.677183,0.1397755,0.45402288,83.1519,06/21.0/2023,2000,g 11.0,6.0
# From MPEC 2023-M14
71P/Clark,e,9.4381,59.3920,209.0655,3.138754,0.1772426,0.49379566,26.4474,06/21.0/2023,2000,g  9.8,6.0
# From MPEC 2023-M14
72P/Denning-Fujikawa,e,10.9491,26.6974,346.7357,4.307499,0.1102469,0.81868047,0.5761,06/21.0/2023,2000,g 17.5,10.0
# From MPEC 2023-J29
73P/Schwassmann-Wachmann,e,11.2379,69.5695,199.5107,3.093800,0.1811197,0.68582898,54.1733,06/21.0/2023,2000,g 11.5,6.0
# From MPEC 2023-J29
73P-T/Schwassmann-Wachmann,e,11.2417,69.5747,199.4906,3.092537,0.1812307,0.68574183,54.4236,06/21.0/2023,2000,g  9.0,4.0
# From MPEC 2022-P18
73P-U/Schwassmann-Wachmann,e,11.0783,70.6421,199.8861,2.876963,0.2019773,0.66652334,60.5983,06/21.0/2023,2000,g 19.0,4.0
# From MPEC 2022-X67
73P-V/Schwassmann-Wachmann,e,11.2541,69.4467,199.3885,3.147273,0.1765235,0.69074813,52.9399,06/21.0/2023,2000,g 19.0,4.0
# From MPEC 2022-R15
73P-W/Schwassmann-Wachmann,e,11.6192,67.2424,198.8057,4.600544,0.0998827,0.78271449,29.9033,06/21.0/2023,2000,g 18.2,4.0
# From MPEC 2023-A50
73P-X/Schwassmann-Wachmann,e,11.2697,69.4403,199.4065,3.126514,0.1782844,0.68869588,53.4087,06/21.0/2023,2000,g 17.5,4.0
# From MPEC 2022-R15
73P-Y/Schwassmann-Wachmann,e,11.2079,69.7281,199.4820,3.035494,0.1863632,0.68043143,56.0222,06/21.0/2023,2000,g 17.4,4.0
# From MPEC 2022-P18
73P-BU/Schwassmann-Wachmann,e,11.0783,70.6421,199.8861,2.876963,0.2019773,0.66652334,60.5983,06/21.0/2023,2000,g 19.0,4.0
# From MPEC 2022-X67
73P-BV/Schwassmann-Wachmann,e,11.2541,69.4467,199.3885,3.147273,0.1765235,0.69074813,52.9399,06/21.0/2023,2000,g 19.0,4.0
# From MPEC 2022-R15
73P-BW/Schwassmann-Wachmann,e,11.6192,67.2424,198.8057,4.600544,0.0998827,0.78271449,29.9033,06/21.0/2023,2000,g 18.2,4.0
# From MPEC 2023-A50
73P-BX/Schwassmann-Wachmann,e,11.2697,69.4403,199.4065,3.126514,0.1782844,0.68869588,53.4087,06/21.0/2023,2000,g 17.5,4.0
# From MPEC 2022-R15
73P-BY/Schwassmann-Wachmann,e,11.2079,69.7281,199.4820,3.035494,0.1863632,0.68043143,56.0222,06/21.0/2023,2000,g 17.4,4.0
# From MPEC 2023-J95
74P/Smirnova-Chernykh,e,6.4496,53.8977,139.2451,4.709913,0.0964239,0.06571903,186.8781,06/21.0/2023,2000,g  5.0,6.0
# From MPEC 2022-K19
76P/West-Kohoutek-Ikemura,e,30.4880,84.1050,359.9372,3.470168,0.1524679,0.53890894,203.2925,06/21.0/2023,2000,g  8.0,12.0
# From MPEC 2023-M14
77P/Longmore,e,24.3186,14.7678,196.7256,3.623736,0.1428793,0.35184131,11.2729,06/21.0/2023,2000,g  7.0,8.0
# From MPEC 2021-O56
78P/Gehrels,e,6.2575,210.5199,192.6594,3.736549,0.1364577,0.46302623,209.9208,06/21.0/2023,2000,g  5.5,8.0
# From MPC 94675
79P/du Toit-Hartley,e,3.1487,280.5196,281.7885,2.943891,0.1951289,0.61920037,340.2216,06/21.0/2023,2000,g 16.0,4.0
# From MPEC 2023-M14
80P/Peters-Hartley,e,29.9232,259.7952,339.2441,4.022635,0.1221626,0.59842230,23.7189,06/21.0/2023,2000,g  9.0,8.0
# From MPEC 2023-M14
81P/Wild,e,3.2364,136.0973,41.6202,3.454147,0.1535299,0.53726089,28.7708,06/21.0/2023,2000,g  7.0,6.0
# From MPC133426
82P/Gehrels,e,1.1291,239.2447,226.4074,4.132977,0.1173031,0.12215709,214.0065,06/21.0/2023,2000,g 15.0,4.0
# From MPEC 2020-FB5
